332P-J/Ikeya-Murakami,e,9.4296,3.6729,152.7712,3.115165,0.1792596,0.49429435,359.8613,03/17.0/2016,2000,g 20.5,2.0
# From MPEC 2020-L06
333P/LINEAR,e,131.9806,115.6259,26.0021,4.219287,0.1137223,0.73678235,221.2275,07/28.0/2021,2000,g 15.0,4.0
# From MPC115888
334P/NEAT,e,20.4276,90.6671,90.0907,6.838900,0.0551093,0.35141759,83.3505,07/28.0/2021,2000,g 10.5,4.0
# From MPC100285
335P/Gibbs,e,7.2935,330.8481,162.2807,3.577631,0.1456501,0.54591589,304.6489,07/28.0/2021,2000,g 17.0,4.0
# From MPC105244
336P/McNaught,e,17.8333,298.2331,308.7607,5.032836,0.0872941,0.44495667,142.8787,07/28.0/2021,2000,g 13.5,4.0
# From MPEC 2021-N06
337P/WISE,e,15.3716,106.0682,161.0062,3.286953,0.1653918,0.49676243,304.0802,07/28.0/2021,2000,g 17.0,4.0
# From MPC104796
338P/McNaught,e,25.3811,9.7918,4.4065,3.896789,0.1281279,0.41156197,218.8056,07/28.0/2021,2000,g 12.0,4.0
# From MPC101101
339P/Gibbs,e,5.7337,172.7300,27.5114,3.696925,0.1386574,0.63552703,254.0511,07/28.0/2021,2000,g 17.0,4.0
# From MPC102957
340P/Boattini,e,2.0791,291.7179,35.8633,4.251039,0.1124505,0.28081093,192.2942,07/28.0/2021,2000,g 13.0,4.0
# From MPEC 2021-BE3
341P/Gibbs,e,3.7959,29.9767,312.1673,4.293096,0.1108021,0.41555095,208.8936,07/28.0/2021,2000,g 12.5,4.0
# From MPC101101
342P/SOHO,e,11.6657,27.7299,73.2444,3.042847,0.1856880,0.98277243,0.0000,10/19.3002/2021,2000,g  9.0,4.0
# From MPC109148
343P/NEAT-LONEOS,e,5.5849,257.1963,137.3811,5.459934,0.0772544,0.58434965,126.8029,07/28.0/2021,2000,g 14.0,4.0
# From MPC109148
344P/Read,e,3.4911,273.1687,140.3793,4.865102,0.0918472,0.42208159,158.8971,07/28.0/2021,2000,g 13.0,4.0
# From MPC109148
345P/LINEAR,e,2.7272,154.5072,196.4123,4.038306,0.1214522,0.22112337,222.9345,07/28.0/2021,2000,g 12.0,4.0
# From MPC110086
346P/Catalina,e,22.1877,102.4647,335.9699,4.475487,0.1040983,0.50243970,169.2281,07/28.0/2021,2000,g 14.0,4.0
# From MPC108599
347P/PANSTARRS,e,11.7501,261.0286,98.3460,3.605849,0.1439437,0.38582891,256.0642,07/28.0/2021,2000,g 15.0,4.0
# From MPEC 2020-SI8
348P/PANSTARRS,e,17.7404,312.9409,135.6470,3.150038,0.1762911,0.30668384,324.8331,07/28.0/2021,2000,g 14.0,4.0
# From MPC112394
349P/Lemmon,e,5.4909,331.7430,256.0370,3.573483,0.1459037,0.29889698,209.0562,07/28.0/2021,2000,g 14.0,4.0
# From MPC111775
350P/McNaught,e,7.3581,65.3271,140.0717,4.090497,0.1191352,0.09172945,157.4600,07/28.0/2021,2000,g 14.0,4.0
# From MPC105244
351P/Wiegert-PANSTARRS,e,12.7871,283.4476,352.6723,4.437684,0.1054313,0.29579192,219.0718,07/28.0/2021,2000,g 12.5,4.0
# From MPC110086
352P/Skiff,e,21.0094,28.0549,309.2102,6.638498,0.0576235,0.61823869,86.2246,07/28.0/2021,2000,g 11.5,4.0
# From MPEC 2020-AA5
353P/McNaught,e,28.4234,121.5603,230.3898,4.171154,0.1156964,0.47019995,152.0181,07/28.0/2021,2000,g 14.5,4.0
# From MPC105545
354P/LINEAR,e,5.2556,320.1291,132.9355,2.289473,0.2845122,0.12568198,129.9750,07/28.0/2021,2000,g 15.5,4.0
# From MPEC 2020-AA5
355P/LINEAR-NEAT,e,11.0404,51.4313,336.2554,3.471590,0.1523742,0.50728257,210.8536,07/28.0/2021,2000,g 15.5,2.0
# From MPEC 2021-F20
356P/WISE,e,9.6375,160.7955,225.9888,4.159362,0.1161887,0.35512545,153.1860,07/28.0/2021,2000,g 14.0,4.0
# From MPC114609
357P/Hill,e,6.3121,44.5674,1.3919,4.460255,0.1046320,0.43490405,120.9432,07/28.0/2021,2000,g 15.5,4.0
# From MPEC 2020-HN5
358P/PANSTARRS,e,11.0582,85.7063,299.7321,3.147482,0.1765059,0.23851084,212.3709,07/28.0/2021,2000,g 18.0,4.0
# From MPC110086
359P/LONEOS,e,10.2673,149.7558,200.1666,4.639623,0.0986234,0.32414691,141.6405,07/28.0/2021,2000,g 13.5,4.0
# From MPC108599
360P/WISE,e,24.1066,2.1902,354.1323,3.702027,0.1383709,0.49898106,199.0123,07/28.0/2021,2000,g 19.5,6.0
# From MPC114609
361P/Spacewatch,e,13.8937,203.2503,219.0447,4.938292,0.0898129,0.43813742,100.7465,07/28.0/2021,2000,g 12.0,4.0
# From MPEC 2017-V13
362P/,e,15.5564,192.5646,53.7010,3.969154,0.1246399,0.27936701,224.3381,07/28.0/2021,2000,g 12.9,2.0
# From MPC114609
363P/Lemmon,e,5.4057,146.9001,341.2715,3.552309,0.1472102,0.52489069,183.0823,07/28.0/2021,2000,g 17.5,4.0
# From MPEC 2021-F20
364P/PANSTARRS,e,12.1391,46.1862,212.0103,2.879334,0.2017279,0.72215458,227.8962,07/28.0/2021,2000,g 17.0,2.0
# From MPC111775
365P/PANSTARRS,e,9.8239,87.1787,66.4196,3.174405,0.1742652,0.57777206,219.7340,07/28.0/2021,2000,g 17.0,4.0
# From MPC114610
366P/Spacewatch,e,8.8587,70.7594,153.1341,3.495828,0.1507922,0.34822318,166.3949,07/28.0/2021,2000,g 15.0,4.0
# From MPC112395
367P/Catalina,e,8.4621,58.7212,172.9025,3.505865,0.1501452,0.28018030,170.1575,07/28.0/2021,2000,g 17.5,2.0
# From MPC114610
368P/NEAT,e,15.4812,257.9359,118.7981,5.527161,0.0758492,0.62647074,79.4350,07/28.0/2021,2000,g 14.0,4.0
# From MPC114610
369P/Hill,e,10.3151,47.2940,13.1745,4.384030,0.1073727,0.55451416,109.1754,07/28.0/2021,2000,g 15.0,4.0
# From MPEC 2021-F20
370P/NEAT,e,19.4066,55.1118,356.6809,6.434667,0.0603830,0.61467329,69.0998,07/28.0/2021,2000,g 13.0,4.0
# From MPC114610
371P/LINEAR-Skiff,e,17.3779,67.2952,308.4678,4.180993,0.1152882,0.47672189,118.3943,07/28.0/2021,2000,g 16.0,4.0
# From MPEC 2020-K19
372P/McNaught,e,9.5101,325.8157,27.3329,4.504790,0.1030842,0.15273471,104.0906,07/28.0/2021,2000,g 13.5,4.0
# From MPEC 2021-F20
373P/Rinner,e,13.7622,231.9483,221.0889,3.803368,0.1328776,0.39222256,111.7850,07/28.0/2021,2000,g 14.5,4.0
# From MPC114610
374P/Larson,e,10.7643,7.9121,51.4820,4.973375,0.0888643,0.46259508,82.5757,07/28.0/2021,2000,g 14.0,4.0
# From MPEC 2021-F20
375P/Hill,e,17.3613,359.9462,119.4500,5.555736,0.0752648,0.65854918,71.5068,07/28.0/2021,2000,g 16.0,4.0
# From MPEC 2020-W26
376P/LONEOS,e,1.1899,314.7535,284.7109,5.828494,0.0700438,0.51728990,46.9556,07/28.0/2021,2000,g 12.5,4.0
# From MPEC 2021-N06
377P/Scotti,e,9.0233,226.0605,355.0430,6.710194,0.0567024,0.25227631,21.6038,07/28.0/2021,2000,g  9.5,4.0
# From MPEC 2021-O56
378P/McNaught,e,19.0548,94.3919,193.8843,6.377644,0.0611947,0.47027422,17.2287,07/28.0/2021,2000,g 12.0,4.0
# From MPC115889
379P/Spacewatch,e,12.4247,183.8249,30.9470,3.520366,0.1492184,0.34022860,108.4594,07/28.0/2021,2000,g 15.0,4.0
# From MPEC 2020-KB7
380P/PANSTARRS,e,8.2828,132.9792,88.2420,4.505119,0.1030729,0.33332441,81.1307,07/28.0/2021,2000,g 12.5,4.0
# From MPEC 2021-J28
381P/LINEAR-Spacewatch,e,28.3763,173.7682,173.1783,7.124888,0.0518247,0.68187801,34.7186,07/28.0/2021,2000,g 17.5,2.0
# From MPEC 2021-O56
382P/Larson,e,7.9290,174.7815,173.1727,6.419137,0.0606023,0.31333597,346.0043,07/28.0/2021,2000,g  8.0,4.0
# From MPC118844
383P/Christensen,e,12.3214,207.8641,133.6897,3.545424,0.1476393,0.59961806,94.5865,07/28.0/2021,2000,g 18.0,4.0
# From MPEC 2020-W26
384P/Kowalski,e,7.2840,354.2288,37.6189,2.900989,0.1994734,0.61563897,130.7425,07/28.0/2021,2000,g 19.5,4.0
# From MPEC 2021-F20
385P/Hill,e,16.8303,357.0614,44.3233,4.288364,0.1109856,0.40153191,75.7045,07/28.0/2021,2000,g 13.0,4.0
# From MPEC 2021-L04
386P/PANSTARRS,e,15.2296,134.9480,353.2159,4.056460,0.1206378,0.41627010,41.3491,07/28.0/2021,2000,g 14.5,4.0
# From MPEC 2021-J28
387P/Boattini,e,8.9193,259.3133,162.7707,4.798318,0.0937714,0.73614793,64.7727,07/28.0/2021,2000,g 15.0,4.0
# From MPEC 2021-F20
388P/Gibbs,e,23.8699,37.0422,42.3551,5.243784,0.0820799,0.61803970,60.3646,07/28.0/2021,2000,g 13.0,4.0
# From MPEC 2021-J28
389P/Siding Spring,e,160.0701,218.8532,249.3155,5.627587,0.0738279,0.70431200,42.5830,07/28.0/2021,2000,g 16.0,4.0
# From MPEC 2021-O56
390P/Gibbs,e,18.5618,152.2748,232.3523,5.803966,0.0704883,0.70716152,34.7288,07/28.0/2021,2000,g 12.0,4.0
# From MPEC 2021-F20
391P/Kowalski,e,21.2758,124.7312,187.0194,4.679339,0.0973705,0.12063546,119.2471,07/28.0/2021,2000,g  8.0,4.0
# From MPEC 2021-J28
392P/LINEAR,e,4.9305,24.8811,71.9553,6.145167,0.0646999,0.68278933,31.2644,07/28.0/2021,2000,g 14.5,4.0
# From MPEC 2021-BE3
393P/Spacewatch-Hill,e,16.7906,36.4146,328.2790,4.787066,0.0941022,0.12059046,60.3196,07/28.0/2021,2000,g 11.0,4.0
# From MPEC 2020-KB7
394P/PANSTARRS,e,8.5294,98.1251,54.5213,4.332012,0.1093124,0.36780622,66.2129,07/28.0/2021,2000,g 16.0,2.4
# From MPEC 2021-O56
395P/Catalina-NEAT,e,3.2771,223.7420,89.7964,6.544829,0.0588649,0.37892248,350.8362,07/28.0/2021,2000,g 10.0,4.0
# From MPEC 2020-KB7
396P/,e,5.4363,136.6641,8.5836,6.816965,0.0553755,0.41588300,38.7373,07/28.0/2021,2000,g 12.0,4.0
# From MPEC 2021-O56
397P/Lemmon,e,10.9285,8.2019,14.4406,3.827690,0.1316130,0.40509743,53.1187,07/28.0/2021,2000,g 12.0,4.0
# From MPEC 2021-L04
398P/Boattini,e,11.0154,127.4620,320.2302,3.128145,0.1781450,0.58263816,37.9907,07/28.0/2021,2000,g 15.5,4.0
# From MPEC 2021-F20
399P/PANSTARRS,e,13.3189,207.1455,214.2935,3.789476,0.1336089,0.44688162,8.8756,07/28.0/2021,2000,g 15.6,4.0
# From MPEC 2020-FB5
400P/PANSTARRS,e,10.9291,176.3948,238.7938,3.559944,0.1467369,0.40916127,24.6353,07/28.0/2021,2000,g 15.5,2.8
# From MPEC 2021-BE3
401P/McNaught,e,12.8035,359.8847,309.3366,5.772989,0.0710564,0.58010416,42.5176,07/28.0/2021,2000,g 12.5,4.0
# From MPEC 2021-J28
402P/LINEAR,e,30.8527,123.0894,326.7405,7.011301,0.0530892,0.43835631,352.5887,07/28.0/2021,2000,g  8.0,4.0
# From MPEC 2021-J28
403P/Catalina,e,12.3211,163.8126,277.6634,5.427298,0.0779522,0.50342990,24.5278,07/28.0/2021,2000,g 12.0,4.0
# From MPEC 2021-N06
404P/Bressi,e,9.7312,261.6888,162.7368,4.821197,0.0931047,0.13699477,286.6240,07/28.0/2021,2000,g 10.0,4.0
# From MPEC 2021-L04
405P/Lemmon,e,9.3653,3.3134,112.2386,3.608803,0.1437671,0.68914164,31.0094,07/28.0/2021,2000,g 17.5,4.0
# From MPEC 2021-F20
406P/Gibbs,e,1.2135,11.4712,352.3814,3.574362,0.1458500,0.54200894,45.9807,07/28.0/2021,2000,g 17.0,4.0
# From MPEC 2021-F20
407P/PANSTARRS-Fuls,e,4.8910,80.8080,92.6346,3.460200,0.1531272,0.38467163,83.0985,07/28.0/2021,2000,g 14.0,4.0
# From MPEC 2021-O56
408P/Novichonok-Gerke,e,19.3314,189.4480,226.0598,4.760616,0.0948876,0.27109525,319.0427,07/28.0/2021,2000,g 11.0,4.0
# From MPEC 2021-O56
409P/LONEOS-Hill,e,17.1188,143.6713,15.1313,6.047548,0.0662728,0.70995950,11.9849,07/28.0/2021,2000,g 14.0,4.0
# From MPEC 2021-F20
